{
  "norad_id": 58108,
  "name": "STARLINK-30611",
  "history": [
    {
      "epoch": "2026-03-28T22:12:07.478784Z",
      "apogee_km": 476.25952705244526,
      "perigee_km": 474.2283220140325,
      "latitude_deg": 5.7145051762982e-05,
      "longitude_deg": -95.96256188351856,
      "height_km": 476.08754139863174,
      "semi_major_axis_km": 6853.380924533239,
      "eccentricity": 0.00014819,
      "inclination_deg": 53.1614,
      "raan_deg": 63.4071,
      "arg_perigee_deg": 86.9348,
      "mean_anomaly_deg": 273.1823,
      "mean_motion_rev_day": 15.30190336
    },
    {
      "epoch": "2026-03-29T04:28:20.296992Z",
      "apogee_km": 476.25457424774686,
      "perigee_km": 474.23282694107183,
      "latitude_deg": -5.868470601404451e-05,
      "longitude_deg": 168.5123336041346,
      "height_km": 476.16176265489366,
      "semi_major_axis_km": 6853.380700594409,
      "eccentricity": 0.0001475,
      "inclination_deg": 53.1614,
      "raan_deg": 62.193,
      "arg_perigee_deg": 91.1402,
      "mean_anomaly_deg": 268.9767,
      "mean_motion_rev_day": 15.30190411
    }
  ]
}